[{"OBJECT_NAME":"STARLINK-5475","OBJECT_ID":"2023-021AK","EPOCH":"2026-03-09T22:57:25.060320","MEAN_MOTION":14.98345501,"ECCENTRICITY":0.00035161,"INCLINATION":70.0003,"RA_OF_ASC_NODE":163.821,"ARG_OF_PERICENTER":272.1774,"MEAN_ANOMALY":87.8983,"EPHEMERIS_TYPE":0,"CLASSIFICATION_TYPE":"U","NORAD_CAT_ID":55661,"ELEMENT_SET_NO":999,"REV_AT_EPOCH":16932,"BSTAR":-0.00026487286,"MEAN_MOTION_DOT":-3.253e-5,"MEAN_MOTION_DDOT":0},{"OBJECT_NAME":"ICEYE-X48","OBJECT_ID":"2025-052AV","EPOCH":"2026-03-09T16:59:01.566528","MEAN_MOTION":14.97356709,"ECCENTRICITY":0.00026878,"INCLINATION":97.6979,"RA_OF_ASC_NODE":322.3976,"ARG_OF_PERICENTER":141.7433,"MEAN_ANOMALY":218.398,"EPHEMERIS_TYPE":0,"CLASSIFICATION_TYPE":"U","NORAD_CAT_ID":63253,"ELEMENT_SET_NO":999,"REV_AT_EPOCH":5378,"BSTAR":0.00039588576,"MEAN_MOTION_DOT":4.541e-5,"MEAN_MOTION_DDOT":0}]
